0 RAPIDEYE 5
1 33313U 08040B   13282.18383660  .00000388  00000-0  58160-4 0  6525
2 33313 097.8969 008.6273 0016113 278.5976 081.3401 14.79935871276090
0 RAPIDEYE 5
1 33313U 08040B   13282.45428354  .00000370  00000-0  55900-4 0  6536
2 33313 097.8968 008.8931 0016108 277.6765 082.2615 14.79935938276138
0 RAPIDEYE 5
1 33313U 08040B   13282.79234164  .00000388  00000-0  58242-4 0  6549
2 33313 097.8968 009.2253 0016095 276.5654 083.3727 14.79936389276182
0 RAPIDEYE 5
1 33313U 08040B   13283.19801153  .00000379  00000-0  56977-4 0  6556
2 33313 097.8970 009.6243 0016109 275.1666 084.7721 14.79936690276243
0 RAPIDEYE 5
1 33313U 08040B   13283.33323452  .00000376  00000-0  56659-4 0  6568
2 33313 097.8967 009.7573 0016117 274.6571 085.2804 14.79936803276260
0 RAPIDEYE 5
1 33313U 08040B   13283.67129246  .00000396  00000-0  59246-4 0  6567
2 33313 097.8969 010.0898 0016084 273.5378 086.4007 14.79937301276311
0 RAPIDEYE 5
1 33313U 08040B   13283.80651541  .00000408  00000-0  60816-4 0  6570
2 33313 097.8970 010.2228 0016086 273.0153 086.9224 14.79937510276330
0 RAPIDEYE 5
1 33313U 08040B   13284.21218457  .00000416  00000-0  61938-4 0  6587
2 33313 097.8967 010.6215 0016083 271.6847 088.2525 14.79938011276399
0 RAPIDEYE 5
1 33313U 08040B   13284.48263027  .00000441  00000-0  65193-4 0  6595
2 33313 097.8968 010.8875 0016087 270.6014 089.3367 14.79938598276434
0 RAPIDEYE 5
1 33313U 08040B   13285.49680187  .00000484  00000-0  70944-4 0  6628
2 33313 097.8967 011.8847 0016069 267.0593 092.8791 14.79940189276580
0 RAPIDEYE 5
1 33313U 08040B   13285.83485896  .00000513  00000-0  74713-4 0  6638
2 33313 097.8967 012.2172 0016051 265.8860 094.0527 14.79940796276631
0 RAPIDEYE 5
1 33313U 08040B   13286.17291608  .00000517  00000-0  75220-4 0  6641
2 33313 097.8966 012.5494 0016060 264.6474 095.2915 14.79941213276682
0 RAPIDEYE 5
1 33313U 08040B   13286.51097297  .00000524  00000-0  76181-4 0  6653
2 33313 097.8966 012.8817 0016057 263.4879 096.4507 14.79941678276737
0 RAPIDEYE 5
1 33313U 08040B   13286.84902983  .00000568  00000-0  82011-4 0  6664
2 33313 097.8967 013.2143 0016026 262.4308 097.5093 14.79942450276783
0 RAPIDEYE 5
1 33313U 08040B   13287.18708694  .00000558  00000-0  80697-4 0  6673
2 33313 097.8965 013.5464 0016039 261.1794 098.7612 14.79942736276832
0 RAPIDEYE 5
1 33313U 08040B   13287.52514353  .00000559  00000-0  80853-4 0  6684
2 33313 097.8965 013.8788 0016044 260.0521 099.8877 14.79943154276881
0 RAPIDEYE 5
1 33313U 08040B   13287.79558893  .00000579  00000-0  83465-4 0  6695
2 33313 097.8965 014.1447 0016049 259.2860 100.6549 14.79943660276922
0 RAPIDEYE 5
1 33313U 08040B   13288.20125703  .00000586  00000-0  84379-4 0  6707
2 33313 097.8964 014.5437 0016080 257.8140 102.1290 14.79944232276986
0 RAPIDEYE 5
1 33313U 08040B   13288.47170181  .00000599  00000-0  86099-4 0  6712
2 33313 097.8963 014.8096 0016054 256.7119 103.2308 14.79944707277029
0 RAPIDEYE 5
1 33313U 08040B   13288.80975799  .00000625  00000-0  89483-4 0  6728
2 33313 097.8963 015.1419 0016031 255.6842 104.2590 14.79945371277075
0 RAPIDEYE 5
1 33313U 08040B   13289.14781424  .00000632  00000-0  90381-4 0  6734
2 33313 097.8962 015.4743 0016042 254.3583 105.5873 14.79945943277126
0 RAPIDEYE 5
1 33313U 08040B   13289.48586986  .00000643  00000-0  91920-4 0  6740
2 33313 097.8960 015.8067 0016039 253.0220 106.9238 14.79946561277179
0 RAPIDEYE 5
1 33313U 08040B   13289.82392574  .00000659  00000-0  93975-4 0  6756
2 33313 097.8961 016.1392 0016033 251.8940 108.0526 14.79947154277222
0 RAPIDEYE 5
1 33313U 08040B   13290.16198179  .00000644  00000-0  92022-4 0  6767
2 33313 097.8963 016.4717 0016030 250.5713 109.3770 14.79947515277270
0 RAPIDEYE 5
1 33313U 08040B   13290.36481524  .00000642  00000-0  91790-4 0  6778
2 33313 097.8962 016.6710 0016033 249.8866 110.0627 14.79947821277301
0 RAPIDEYE 5
1 33313U 08040B   13290.63525964  .00000648  00000-0  92522-4 0  6786
2 33313 097.8964 016.9372 0016021 248.8618 111.0886 14.79948277277349
0 RAPIDEYE 5
1 33313U 08040B   13290.83809301  .00000656  00000-0  93603-4 0  6799
2 33313 097.8964 017.1366 0016026 248.1138 111.8373 14.79948621277375
0 RAPIDEYE 5
1 33313U 08040B   13291.17614880  .00000645  00000-0  92083-4 0  6804
2 33313 097.8966 017.4692 0016033 246.9436 113.0094 14.79949002277421
0 RAPIDEYE 5
1 33313U 08040B   13291.51420422  .00000632  00000-0  90465-4 0  6818
2 33313 097.8964 017.8014 0016051 245.8352 114.1181 14.79949379277477
0 RAPIDEYE 5
1 33313U 08040B   13291.78464849  .00000664  00000-0  94659-4 0  6823
2 33313 097.8965 018.0675 0016041 244.8039 115.1519 14.79950031277512
0 RAPIDEYE 5
1 33313U 08040B   13292.19031505  .00000665  00000-0  94783-4 0  6838
2 33313 097.8966 018.4666 0016057 243.4419 116.5161 14.79950581277575
0 RAPIDEYE 5
1 33313U 08040B   13292.46075898  .00000669  00000-0  95369-4 0  6847
2 33313 097.8966 018.7327 0016072 242.4643 117.4940 14.79951004277618
0 RAPIDEYE 5
1 33313U 08040B   13292.79881401  .00000685  00000-0  97462-4 0  6853
2 33313 097.8967 019.0652 0016075 241.2761 118.6845 14.79951640277663
0 RAPIDEYE 5
1 33313U 08040B   13293.20448008  .00000695  00000-0  98730-4 0  6863
2 33313 097.8967 019.4641 0016101 239.9099 120.0537 14.79952323277724
0 RAPIDEYE 5
1 33313U 08040B   13293.47492345  .00000708  00000-0  10050-3 0  6879
2 33313 097.8968 019.7300 0016090 239.0224 120.9412 14.79952877277767
0 RAPIDEYE 5
1 33313U 08040B   13293.81297792  .00000727  00000-0  10294-3 0  6888
2 33313 097.8966 020.0624 0016113 237.8467 122.1176 14.79953519277811
0 RAPIDEYE 5
1 33313U 08040B   13294.15103273  .00000733  00000-0  10371-3 0  6890
2 33313 097.8966 020.3948 0016129 236.6190 123.3495 14.79954133277865
0 RAPIDEYE 5
1 33313U 08040B   13294.48908669  .00000745  00000-0  10533-3 0  6903
2 33313 097.8966 020.7275 0016141 235.3984 124.5712 14.79954821277918
0 RAPIDEYE 5
1 33313U 08040B   13294.82714085  .00000758  00000-0  10703-3 0  6912
2 33313 097.8967 021.0601 0016160 234.2072 125.7643 14.79955467277961
0 RAPIDEYE 5
1 33313U 08040B   13295.16519512  .00000743  00000-0  10505-3 0  6923
2 33313 097.8967 021.3925 0016177 232.9530 127.0207 14.79955884278016
0 RAPIDEYE 5
1 33313U 08040B   13295.50324919  .00000730  00000-0  10337-3 0  6936
2 33313 097.8966 021.7247 0016198 231.7687 128.2069 14.79956335278065
0 RAPIDEYE 5
1 33313U 08040B   13295.84130319  .00000724  00000-0  10250-3 0  6940
2 33313 097.8967 022.0573 0016220 230.4940 129.4828 14.79956748278116
0 RAPIDEYE 5
1 33313U 08040B   13296.17935766  .00000703  00000-0  99838-4 0  6954
2 33313 097.8965 022.3897 0016219 229.3022 130.6785 14.79957075278167
